NUSAT-1 (FRESCO)        
1 41557U 16033B   22032.20737413  .00007305  00000+0  24361-3 0  9994
2 41557  97.3899 130.0861 0013116 137.3796 307.2062 15.31296526316512
BEESAT-4                
1 41619U 16040W   22031.67435369  .00012783  00000+0  47767-3 0  9997
2 41619  97.2393  86.1916 0008745 238.2244 121.8144 15.27450621299820
CAS-2T & KS-1Q          
1 41847U 16066G   22031.79898361  .00000687  00000+0  11451-3 0  9997
2 41847  98.5711  96.5178 0363661 258.4236  97.5923 14.38341649274706
NAYIF-1 (EO-88)         
1 42017U 17008BX  22031.42877615  .00013008  00000+0  44471-3 0  9992
2 42017  97.2895  99.8642 0006221  32.0545 328.1073 15.30382597276095
ZHUHAI-1 02 (CAS-4B)    
1 42759U 17034B   22032.10149288  .00002387  00000+0  15426-3 0  9994
2 42759  43.0186   3.5995 0007032 159.0474 296.9235 15.10804856255729
ZHUHAI-1 01 (CAS-4A)    
1 42761U 17034D   22032.07823058  .00002160  00000+0  14053-3 0  9991
2 42761  43.0185   2.6142 0007300 160.5267 289.9009 15.10890433255727
MAX VALIER SAT          
1 42778U 17036P   22031.91228570  .00006929  00000+0  28134-3 0  9993
2 42778  97.2265  77.7793 0013184  90.4099 269.8650 15.24810743256081
RADFXSAT (FOX-1B)       
1 43017U 17073E   22031.67373337  .00004499  00000+0  34856-3 0  9994
2 43017  97.6910 291.4421 0250977 275.3616  81.9012 14.80289315226879
FOX-1D (AO-92)          
1 43137U 18004AC  22031.87764755  .00009812  00000+0  37552-3 0  9992
2 43137  97.3847 108.4648 0009659 120.5391 239.6802 15.26724672225493
DIWATA-2B               
1 43678U 18084H   22032.10821161  .00000155  00000+0  21127-4 0  9995
2 43678  97.9484 163.9946 0010565  23.5610 336.6106 14.91894657177524
ES'HAIL 2               
1 43700U 18090A   22031.87044361  .00000133  00000+0  00000+0 0  9998
2 43700   0.0162  77.0303 0002111 272.1680 120.9651  1.00271119 11666
FOX-1CLIFF (AO-95)      
1 43770U 18099N   22031.87894597  .00002210  00000+0  20313-3 0  9999
2 43770  97.6397 101.7343 0014798  19.8202 340.3591 14.95723243172593
ITASAT 1                
1 43786U 18099AE  22031.82345359  .00001500  00000+0  13864-3 0  9992
2 43786  97.6420 102.5158 0015346  12.5114 347.6485 14.95964655172622
JY1SAT (JO-97)          
1 43803U 18099AX  22031.87829365  .00002511  00000+0  22677-3 0  9996
2 43803  97.6382 102.3061 0015140  12.2229 347.9357 14.96296548172649
UWE-4                   
1 43880U 18111E   22031.70719629  .00002162  00000+0  19095-3 0  9991
2 43880  97.6785 300.4227 0013808  61.9419 298.3198 14.97331028169234
NEXUS (FO-99)           
1 43937U 19003F   22032.10535491  .00012433  00000+0  46199-3 0  9990
2 43937  97.1494  70.9567 0020348 281.4194  78.4760 15.27480506169143
PSAT2 (NO-104)          
1 44354U 19036R   22031.68137950  .00057956  00000+0  67604-3 0  9993
2 44354  28.5296  34.9365 0286368 247.6109 109.3910 15.23969771143692
BRICSAT2 (NO-103)       
1 44355U 19036S   22031.92762384  .00214997  53964-5  14110-2 0  9992
2 44355  28.5223 295.7993 0166069  48.3530 313.1165 15.57755951144694
JAISAT-1                
1 44419U 19038F   22032.14559220  .00007528  00000+0  40482-3 0  9992
2 44419  97.6196   1.5706 0018763 241.0993 118.8356 15.15014633142406
DUCHIFAT-3              
1 44854U 19089C   22031.82767341  .00002083  00000+0  17036-3 0  9990
2 44854  36.9645 189.6305 0007136 200.3001 159.7460 15.00042492117407
CAS-6 (TO-108)          
1 44881U 19093C   22032.15949681  .00000248  00000+0  38358-4 0  9993
2 44881  97.9059 113.2784 0013537 270.0834  89.8839 14.81552603114595
RS-44 & BREEZE-KM R/B   
1 44909U 19096E   22031.91898004  .00000005  00000+0 -15761-4 0  9997
2 44909  82.5245 321.0031 0216327 279.0743  78.5938 12.79712064 98047
ORBITAL FACTORY 2 (OF-2)
1 45113U 19071C   22031.35769341  .00019587  00000+0  50769-3 0  9997
2 45113  51.6412  10.3620 0011495  42.1955 317.9912 15.38963848112228
HUSKYSAT-1 (HO-107)     
1 45119U 19071J   22031.64011389  .00019318  00000+0  50468-3 0  9995
2 45119  51.6412   8.4827 0011008  39.8803 320.2988 15.38735841112260
BY70-2                  
1 45857U 20042B   22032.15368612  .00003245  00000+0  45645-3 0  9998
2 45857  97.9670 110.4502 0010945 190.0876 170.0157 14.77991104 85313
SALSAT                  
1 46495U 20068K   22031.78831987  .00002376  00000+0  17683-3 0  9998
2 46495  97.7164 333.2395 0017353  23.6467 336.5552 15.03824735 73646
BY70-3                  
1 46839U 20079N   22032.22362744  .00011352  00000+0  32056-3 0  9997
2 46839  97.2171 106.5892 0008207 101.7829 345.0363 15.36493223 69293
RADFXSAT-2 (AO-109)     
1 47311U 21002C   22031.87900772  .00010262  00000+0  44062-3 0  9998
2 47311  60.6863 155.3944 0024971 166.8202 193.3543 15.22986757 57648
UVSQ-SAT                
1 47438U 21006AB  22031.67332555  .00005149  00000+0  28634-3 0  9993
2 47438  97.4585  93.5282 0013254  35.7754 324.4363 15.14033735 56571
DIY-1 (ARDUIQUBE)       
1 47963U 21022AH  22031.94620057  .00016323  00000+0  10223-2 0  9991
2 47963  97.5451 295.2598 0016973 241.9361 118.0152 15.09329731 46338
XW-3 (CAS-9)            
1 50466U 21131B   22032.18516785  .00000000  00000+0  14624-4 0  9999
2 50466  98.5936 109.4430 0004644 179.3933 180.7272 14.38437844  5320
